{
    "links": {
        "self": "http://www.neowsapp.com/rest/v1/neo/3555210?api_key=iIulBulltgU6a56xZRHN4H3l9WmuAYTsLGpBGhQ2"
    },
    "id": "3555210",
    "neo_reference_id": "3555210",
    "name": "(2011 AN52)",
    "designation": "2011 AN52",
    "nasa_jpl_url": "http://ssd.jpl.nasa.gov/sbdb.cgi?sstr=3555210",
    "absolute_magnitude_h": 28.6,
    "estimated_diameter": {
        "kilometers": {
            "estimated_diameter_min": 0.0050647146,
            "estimated_diameter_max": 0.0113250461
        },
        "meters": {
            "estimated_diameter_min": 5.0647145883,
            "estimated_diameter_max": 11.3250461062
        },
        "miles": {
            "estimated_diameter_min": 0.0031470668,
            "estimated_diameter_max": 0.0070370552
        },
        "feet": {
            "estimated_diameter_min": 16.61651821,
            "estimated_diameter_max": 37.155664267
        }
    },
    "is_potentially_hazardous_asteroid": false,
    "close_approach_data": [
        {
            "close_approach_date": "2007-07-21",
            "close_approach_date_full": "2007-Jul-21 17:47",
            "epoch_date_close_approach": 1185040020000,
            "relative_velocity": {
                "kilometers_per_second": "24.2090416448",
                "kilometers_per_hour": "87152.5499213884",
                "miles_per_hour": "54153.2052553205"
            },
            "miss_distance": {
                "astronomical": "0.285583025",
                "lunar": "111.091796725",
                "kilometers": "42722612.24815675",
                "miles": "26546600.26879315"
            },
            "orbiting_body": "Earth"
        },
        {
            "close_approach_date": "2011-01-17",
            "close_approach_date_full": "2011-Jan-17 17:30",
            "epoch_date_close_approach": 1295285400000,
            "relative_velocity": {
                "kilometers_per_second": "16.3243898844",
                "kilometers_per_hour": "58767.8035838216",
                "miles_per_hour": "36516.027732403"
            },
            "miss_distance": {
                "astronomical": "0.0021204582",
                "lunar": "0.8248582398",
                "kilometers": "317216.030144034",
                "miles": "197108.9010703092"
            },
            "orbiting_body": "Moon"
        },
        {
            "close_approach_date": "2011-01-17",
            "close_approach_date_full": "2011-Jan-17 23:19",
            "epoch_date_close_approach": 1295306340000,
            "relative_velocity": {
                "kilometers_per_second": "15.9269590811",
                "kilometers_per_hour": "57337.0526919974",
                "miles_per_hour": "35627.0147685359"
            },
            "miss_distance": {
                "astronomical": "0.0021319993",
                "lunar": "0.8293477277",
                "kilometers": "318942.554121491",
                "miles": "198181.7133229358"
            },
            "orbiting_body": "Earth"
        }
    ],
    "orbital_data": {
        "orbit_id": "7",
        "orbit_determination_date": "2017-04-06 08:54:56",
        "first_observation_date": "2011-01-14",
        "last_observation_date": "2011-01-17",
        "data_arc_in_days": 3,
        "observations_used": 21,
        "orbit_uncertainty": "8",
        "minimum_orbit_intersection": ".00213017",
        "jupiter_tisserand_invariant": "4.314",
        "epoch_osculation": "2455576.5",
        "eccentricity": ".5493447230369776",
        "semi_major_axis": "1.526233901012896",
        "inclination": "2.20998381065779",
        "ascending_node_longitude": "114.1585519372167",
        "orbital_period": "688.6999806959772",
        "perihelion_distance": ".6878053613713208",
        "perihelion_argument": "84.48005424978024",
        "aphelion_distance": "2.364662440654471",
        "perihelion_time": "2455628.626543555436",
        "mean_anomaly": "332.7522053057224",
        "mean_motion": ".5227239873539651",
        "equinox": "J2000",
        "orbit_class": {
            "orbit_class_type": "APO",
            "orbit_class_description": "Near-Earth asteroid orbits which cross the Earth’s orbit similar to that of 1862 Apollo",
            "orbit_class_range": "a (semi-major axis) > 1.0 AU; q (perihelion) < 1.017 AU"
        }
    },
    "is_sentry_object": false
}